{"type": "FeatureCollection", "features": [ {"type": "Feature", "properties": {"norad_id": 35016, "name": "COSMOS 2251 DEB", "group": "cosmos-2251-debris", "lat": -2.219063802941426, "lon": 130.89952761830645, "alt_km": 721.034509667451, "timestamp": "2025-12-04T03:47:54.937860+00:00", "meta": {"OBJECT_NAME": "COSMOS 2251 DEB", "OBJECT_ID": "1993-036AGD", "EPOCH": "2025-12-03T09:15:41.281344", "MEAN_MOTION": 14.3502721, "ECCENTRICITY": 0.011501, "INCLINATION": 73.9297, "RA_OF_ASC_NODE": 311.6842, "ARG_OF_PERICENTER": 230.5843, "MEAN_ANOMALY": 283.9594, "EPHEMERIS_TYPE": 0, "CLASSIFICATION_TYPE": "U", "NORAD_CAT_ID": 35016, "ELEMENT_SET_NO": 999, "REV_AT_EPOCH": 86648, "BSTAR": 0.00056137, "MEAN_MOTION_DOT": 1.695e-05, "MEAN_MOTION_DDOT": 0}, "tle": {"line1": "1 35016U 93036AGD 25337.38589446  .00001695  00000+0  56137-3 0  9998", "line2": "2 35016  73.9297 311.6842 0115010 230.5843 283.9594 14.35027210866489"}}, "geometry": {"type": "Point", "coordinates": [130.89952761830645, -2.219063802941426]}}, {"type": "Feature", "properties": {"norad_id": 35018, "name": "COSMOS 2251 DEB", "group": "cosmos-2251-debris", "lat": -38.08350894859987, "lon": -42.87129449388749, "alt_km": 1272.6078298584816, "timestamp": "2025-12-04T03:47:54.937869+00:00", "meta": {"OBJECT_NAME": "COSMOS 2251 DEB", "OBJECT_ID": "1993-036AGF", "EPOCH": "2025-12-03T03:54:20.705760", "MEAN_MOTION": 13.67087707, "ECCENTRICITY": 0.03484354, "INCLINATION": 73.9755, "RA_OF_ASC_NODE": 125.7528, "ARG_OF_PERICENTER": 37.0273, "MEAN_ANOMALY": 325.4344, "EPHEMERIS_TYPE": 0, "CLASSIFICATION_TYPE": "U", "NORAD_CAT_ID": 35018, "ELEMENT_SET_NO": 999, "REV_AT_EPOCH": 83055, "BSTAR": 0.001039048, "MEAN_MOTION_DOT": 1.303e-05, "MEAN_MOTION_DDOT": 0}, "tle": {"line1": "1 35018U 93036AGF 25337.16273965  .00001303  00000+0  10390-2 0  9998", "line2": "2 35018  73.9755 125.7528 0348435  37.0273 325.4344 13.67087707830556"}}, "geometry": {"type": "Point", "coordinates": [-42.87129449388749, -38.08350894859987]}}, {"type": "Feature", "properties": {"norad_id": 35020, "name": "COSMOS 2251 DEB", "group": "cosmos-2251-debris", "lat": 35.594010641285685, "lon": 23.5758385574191, "alt_km": 745.0332641690211, "timestamp": "2025-12-04T03:47:54.937879+00:00", "meta": {"OBJECT_NAME": "COSMOS 2251 DEB", "OBJECT_ID": "1993-036AGH", "EPOCH": "2025-12-03T02:31:35.390208", "MEAN_MOTION": 14.6277767, "ECCENTRICITY": 0.00911506, "INCLINATION": 74.049, "RA_OF_ASC_NODE": 217.4049, "ARG_OF_PERICENTER": 333.8786, "MEAN_ANOMALY": 25.7795, "EPHEMERIS_TYPE": 0, "CLASSIFICATION_TYPE": "U", "NORAD_CAT_ID": 35020, "ELEMENT_SET_NO": 999, "REV_AT_EPOCH": 88097, "BSTAR": 0.00024246139, "MEAN_MOTION_DOT": 1.279e-05, "MEAN_MOTION_DDOT": 0}, "tle": {"line1": "1 35020U 93036AGH 25337.10527072  .00001279  00000+0  24246-3 0  9994", "line2": "2 35020  74.0490 217.4049 0091150 333.8786  25.7795 14.62777670880971"}}, "geometry": {"type": "Point", "coordinates": [23.5758385574191, 35.594010641285685]}}, {"type": "Feature", "properties": {"norad_id": 35022, "name": "COSMOS 2251 DEB", "group": "cosmos-2251-debris", "lat": -68.88955539609238, "lon": -153.76348252995598, "alt_km": 689.0400924992764, "timestamp": "2025-12-04T03:47:54.937889+00:00", "meta": {"OBJECT_NAME": "COSMOS 2251 DEB", "OBJECT_ID": "1993-036AGK", "EPOCH": "2025-12-02T17:45:34.658208", "MEAN_MOTION": 14.60763876, "ECCENTRICITY": 0.00472905, "INCLINATION": 74.0262, "RA_OF_ASC_NODE": 341.0512, "ARG_OF_PERICENTER": 183.6288, "MEAN_ANOMALY": 176.4543, "EPHEMERIS_TYPE": 0, "CLASSIFICATION_TYPE": "U", "NORAD_CAT_ID": 35022, "ELEMENT_SET_NO": 999, "REV_AT_EPOCH": 58997, "BSTAR": 0.00056913021, "MEAN_MOTION_DOT": 2.791e-05, "MEAN_MOTION_DDOT": 0}, "tle": {"line1": "1 35022U 93036AGK 25336.73998447  .00002791  00000+0  56913-3 0  9998", "line2": "2 35022  74.0262 341.0512 0047290 183.6288 176.4543 14.60763876589975"}}, "geometry": {"type": "Point", "coordinates": [-153.76348252995598, -68.88955539609238]}}, {"type": "Feature", "properties": {"norad_id": 35023, "name": "COSMOS 2251 DEB", "group": "cosmos-2251-debris", "lat": 71.90400586464331, "lon": -11.260654526260847, "alt_km": 596.892971163018, "timestamp": "2025-12-04T03:47:54.937899+00:00", "meta": {"OBJECT_NAME": "COSMOS 2251 DEB", "OBJECT_ID": "1993-036AGL", "EPOCH": "2025-12-03T11:33:25.684128", "MEAN_MOTION": 14.9458719, "ECCENTRICITY": 0.0034493, "INCLINATION": 74.0388, "RA_OF_ASC_NODE": 231.2494, "ARG_OF_PERICENTER": 310.8354, "MEAN_ANOMALY": 107.9286, "EPHEMERIS_TYPE": 0, "CLASSIFICATION_TYPE": "U", "NORAD_CAT_ID": 35023, "ELEMENT_SET_NO": 999, "REV_AT_EPOCH": 88141, "BSTAR": 0.0023135, "MEAN_MOTION_DOT": 0.00025388, "MEAN_MOTION_DDOT": 0}, "tle": {"line1": "1 35023U 93036AGL 25337.48154727  .00025388  00000+0  23135-2 0  9993", "line2": "2 35023  74.0388 231.2494 0034493 310.8354 107.9286 14.94587190881410"}}, "geometry": {"type": "Point", "coordinates": [-11.260654526260847, 71.90400586464331]}}, {"type": "Feature", "properties": {"norad_id": 35025, "name": "COSMOS 2251 DEB", "group": "cosmos-2251-debris", "lat": 38.878461606895186, "lon": -113.69355344285786, "alt_km": 697.7864012630798, "timestamp": "2025-12-04T03:47:54.937910+00:00", "meta": {"OBJECT_NAME": "COSMOS 2251 DEB", "OBJECT_ID": "1993-036AGN", "EPOCH": "2025-12-03T01:05:05.186688", "MEAN_MOTION": 14.72628151, "ECCENTRICITY": 0.00846667, "INCLINATION": 73.9382, "RA_OF_ASC_NODE": 81.9179, "ARG_OF_PERICENTER": 356.9044, "MEAN_ANOMALY": 3.1592, "EPHEMERIS_TYPE": 0, "CLASSIFICATION_TYPE": "U", "NORAD_CAT_ID": 35025, "ELEMENT_SET_NO": 999, "REV_AT_EPOCH": 88500, "BSTAR": 0.00048771001, "MEAN_MOTION_DOT": 3.252e-05, "MEAN_MOTION_DDOT": 0}, "tle": {"line1": "1 35025U 93036AGN 25337.04519892  .00003252  00000+0  48771-3 0  9995", "line2": "2 35025  73.9382  81.9179 0084666 356.9044   3.1592 14.72628151885003"}}, "geometry": {"type": "Point", "coordinates": [-113.69355344285786, 38.878461606895186]}}, {"type": "Feature", "properties": {"norad_id": 35026, "name": "COSMOS 2251 DEB", "group": "cosmos-2251-debris", "lat": -54.27388481830328, "lon": 178.43906708628498, "alt_km": 769.0880083687416, "timestamp": "2025-12-04T03:47:54.937920+00:00", "meta": {"OBJECT_NAME": "COSMOS 2251 DEB", "OBJECT_ID": "1993-036AGP", "EPOCH": "2025-12-02T18:29:37.928832", "MEAN_MOTION": 14.53613384, "ECCENTRICITY": 0.00822592, "INCLINATION": 74.0462, "RA_OF_ASC_NODE": 337.6224, "ARG_OF_PERICENTER": 93.9267, "MEAN_ANOMALY": 84.2291, "EPHEMERIS_TYPE": 0, "CLASSIFICATION_TYPE": "U", "NORAD_CAT_ID": 35026, "ELEMENT_SET_NO": 999, "REV_AT_EPOCH": 87998, "BSTAR": 8.1430616e-05, "MEAN_MOTION_DOT": 3.26e-06, "MEAN_MOTION_DDOT": 0}, "tle": {"line1": "1 35026U 93036AGP 25336.77057788  .00000326  00000+0  81431-4 0  9996", "line2": "2 35026  74.0462 337.6224 0082259  93.9267  84.2291 14.53613384879985"}}, "geometry": {"type": "Point", "coordinates": [178.43906708628498, -54.27388481830328]}}, {"type": "Feature", "properties": {"norad_id": 35028, "name": "COSMOS 2251 DEB", "group": "cosmos-2251-debris", "lat": -70.4090482211571, "lon": 160.79761296460222, "alt_km": 767.4287677727561, "timestamp": "2025-12-04T03:47:54.937930+00:00", "meta": {"OBJECT_NAME": "COSMOS 2251 DEB", "OBJECT_ID": "1993-036AGR", "EPOCH": "2025-12-03T07:31:08.250816", "MEAN_MOTION": 14.56553316, "ECCENTRICITY": 0.0082193, "INCLINATION": 74.0379, "RA_OF_ASC_NODE": 288.8678, "ARG_OF_PERICENTER": 65.1818, "MEAN_ANOMALY": 84.6032, "EPHEMERIS_TYPE": 0, "CLASSIFICATION_TYPE": "U", "NORAD_CAT_ID": 35028, "ELEMENT_SET_NO": 999, "REV_AT_EPOCH": 88148, "BSTAR": 0.00016513, "MEAN_MOTION_DOT": 7.39e-06, "MEAN_MOTION_DDOT": 0}, "tle": {"line1": "1 35028U 93036AGR 25337.31328994  .00000739  00000+0  16513-3 0  9995", "line2": "2 35028  74.0379 288.8678 0082193  65.1818  84.6032 14.56553316881480"}}, "geometry": {"type": "Point", "coordinates": [160.79761296460222, -70.4090482211571]}}, {"type": "Feature", "properties": {"norad_id": 35031, "name": "COSMOS 2251 DEB", "group": "cosmos-2251-debris", "lat": 13.478253204039842, "lon": -80.99342374283952, "alt_km": 751.7626300993634, "timestamp": "2025-12-04T03:47:54.937940+00:00", "meta": {"OBJECT_NAME": "COSMOS 2251 DEB", "OBJECT_ID": "1993-036AGU", "EPOCH": "2025-12-03T02:41:37.542912", "MEAN_MOTION": 14.38274167, "ECCENTRICITY": 0.00184369, "INCLINATION": 74.0383, "RA_OF_ASC_NODE": 276.9995, "ARG_OF_PERICENTER": 12.5533, "MEAN_ANOMALY": 347.6077, "EPHEMERIS_TYPE": 0, "CLASSIFICATION_TYPE": "U", "NORAD_CAT_ID": 35031, "ELEMENT_SET_NO": 999, "REV_AT_EPOCH": 65145, "BSTAR": 0.00026325314, "MEAN_MOTION_DOT": 7.76e-06, "MEAN_MOTION_DDOT": 0}, "tle": {"line1": "1 35031U 93036AGU 25337.11224008  .00000776  00000+0  26325-3 0  9991", "line2": "2 35031  74.0383 276.9995 0018436  12.5533 347.6077 14.38274167651455"}}, "geometry": {"type": "Point", "coordinates": [-80.99342374283952, 13.478253204039842]}}, {"type": "Feature", "properties": {"norad_id": 35032, "name": "COSMOS 2251 DEB", "group": "cosmos-2251-debris", "lat": -27.893448838385055, "lon": 14.985073840138277, "alt_km": 706.6697983168524, "timestamp": "2025-12-04T03:47:54.937950+00:00", "meta": {"OBJECT_NAME": "COSMOS 2251 DEB", "OBJECT_ID": "1993-036AGV", "EPOCH": "2025-12-03T03:23:36.974688", "MEAN_MOTION": 14.58586985, "ECCENTRICITY": 0.00689454, "INCLINATION": 73.8527, "RA_OF_ASC_NODE": 25.7636, "ARG_OF_PERICENTER": 238.5803, "MEAN_ANOMALY": 154.2077, "EPHEMERIS_TYPE": 0, "CLASSIFICATION_TYPE": "U", "NORAD_CAT_ID": 35032, "ELEMENT_SET_NO": 999, "REV_AT_EPOCH": 87534, "BSTAR": 0.0014295632, "MEAN_MOTION_DOT": 6.849e-05, "MEAN_MOTION_DDOT": 0}, "tle": {"line1": "1 35032U 93036AGV 25337.14140017  .00006849  00000+0  14296-2 0  9992", "line2": "2 35032  73.8527  25.7636 0068945 238.5803 154.2077 14.58586985875349"}}, "geometry": {"type": "Point", "coordinates": [14.985073840138277, -27.893448838385055]}}]}